{
  "norad_id": 57853,
  "name": "STARLINK-30404",
  "history": [
    {
      "epoch": "2026-03-28T18:19:51.581280Z",
      "apogee_km": 475.9854210997337,
      "perigee_km": 474.41628086537276,
      "latitude_deg": -3.9966955210897505e-05,
      "longitude_deg": 94.00638514405134,
      "height_km": 475.8085427997786,
      "semi_major_axis_km": 6853.337850982553,
      "eccentricity": 0.00011448,
      "inclination_deg": 53.1601,
      "raan_deg": 195.1509,
      "arg_perigee_deg": 68.2532,
      "mean_anomaly_deg": 291.859,
      "mean_motion_rev_day": 15.30204762
    },
    {
      "epoch": "2026-03-29T00:36:05.501088Z",
      "apogee_km": 476.2298434946624,
      "perigee_km": 474.3643387350621,
      "latitude_deg": 3.4179720942089227e-06,
      "longitude_deg": -1.5255034629639168,
      "height_km": 476.2852225072273,
      "semi_major_axis_km": 6853.434091114862,
      "eccentricity": 0.0001361,
      "inclination_deg": 53.1598,
      "raan_deg": 193.9345,
      "arg_perigee_deg": 95.5498,
      "mean_anomaly_deg": 264.5658,
      "mean_motion_rev_day": 15.3017253
    },
    {
      "epoch": "2026-03-30T00:06:53.454240Z",
      "apogee_km": 476.03845357115824,
      "perigee_km": 474.48396578923894,
      "latitude_deg": 8.985022541837217e-06,
      "longitude_deg": 0.2602386331747843,
      "height_km": 476.03227784610004,
      "semi_major_axis_km": 6853.398209680198,
      "eccentricity": 0.00011341,
      "inclination_deg": 53.1602,
      "raan_deg": 189.3857,
      "arg_perigee_deg": 80.5787,
      "mean_anomaly_deg": 279.5342,
      "mean_motion_rev_day": 15.30184547
    },
    {
      "epoch": "2026-03-30T12:39:19.466496Z",
      "apogee_km": 476.1592348021495,
      "perigee_km": 474.36638541182583,
      "latitude_deg": 3.250832009213297e-05,
      "longitude_deg": 169.20874990646618,
      "height_km": 476.1730956978024,
      "semi_major_axis_km": 6853.399810106987,
      "eccentricity": 0.0001308,
      "inclination_deg": 53.1606,
      "raan_deg": 186.9576,
      "arg_perigee_deg": 90.7804,
      "mean_anomaly_deg": 269.3347,
      "mean_motion_rev_day": 15.30184011
    },
    {
      "epoch": "2026-03-30T15:47:25.765440Z",
      "apogee_km": 476.1481026956935,
      "perigee_km": 474.36950941610576,
      "latitude_deg": 4.774440414261621e-05,
      "longitude_deg": 121.44706252356247,
      "height_km": 476.1664558566129,
      "semi_major_axis_km": 6853.395806055899,
      "eccentricity": 0.00012976,
      "inclination_deg": 53.1604,
      "raan_deg": 186.3509,
      "arg_perigee_deg": 90.6174,
      "mean_anomaly_deg": 269.4976,
      "mean_motion_rev_day": 15.30185352
    },
    {
      "epoch": "2026-03-31T05:53:53.479968Z",
      "apogee_km": 476.0606714492942,
      "perigee_km": 474.3939332509626,
      "latitude_deg": 3.465070952025354e-06,
      "longitude_deg": -93.47822951475347,
      "height_km": 476.16157833271745,
      "semi_major_axis_km": 6853.364302350128,
      "eccentricity": 0.0001216,
      "inclination_deg": 53.1612,
      "raan_deg": 183.6205,
      "arg_perigee_deg": 92.4758,
      "mean_anomaly_deg": 267.6382,
      "mean_motion_rev_day": 15.30195903
    },
    {
      "epoch": "2026-04-01T10:06:52.599168Z",
      "apogee_km": 476.65890847171886,
      "perigee_km": 473.8572405652558,
      "latitude_deg": -3.448446447843539e-05,
      "longitude_deg": -163.34099348523026,
      "height_km": 475.99845811651187,
      "semi_major_axis_km": 6853.395074518487,
      "eccentricity": 0.0002044,
      "inclination_deg": 53.16,
      "raan_deg": 178.1629,
      "arg_perigee_deg": 83.581,
      "mean_anomaly_deg": 276.5423,
      "mean_motion_rev_day": 15.30185597
    },
    {
      "epoch": "2026-04-02T14:19:49.780416Z",
      "apogee_km": 476.3935566052305,
      "perigee_km": 474.03627767981106,
      "latitude_deg": -1.42155662476921e-05,
      "longitude_deg": 126.79758237981274,
      "height_km": 475.8889048604439,
      "semi_major_axis_km": 6853.3519171425205,
      "eccentricity": 0.00017198,
      "inclination_deg": 53.1618,
      "raan_deg": 172.6985,
      "arg_perigee_deg": 79.0591,
      "mean_anomaly_deg": 281.0603,
      "mean_motion_rev_day": 15.30200051
    },
    {
      "epoch": "2026-04-02T22:10:04.865952Z",
      "apogee_km": 476.16376788963953,
      "perigee_km": 474.22071198353206,
      "latitude_deg": 2.8273870110695268e-05,
      "longitude_deg": 7.393982198461745,
      "height_km": 476.29380178947224,
      "semi_major_axis_km": 6853.3292399365855,
      "eccentricity": 0.00014176,
      "inclination_deg": 53.1621,
      "raan_deg": 171.1796,
      "arg_perigee_deg": 102.0865,
      "mean_anomaly_deg": 258.0295,
      "mean_motion_rev_day": 15.30207646
    },
    {
      "epoch": "2026-04-03T15:24:42.287040Z",
      "apogee_km": 476.2815830104719,
      "perigee_km": 474.300942242573,
      "latitude_deg": -3.946640250593413e-05,
      "longitude_deg": 104.69433578796682,
      "height_km": 476.04465972754207,
      "semi_major_axis_km": 6853.428262626522,
      "eccentricity": 0.0001445,
      "inclination_deg": 53.1605,
      "raan_deg": 167.8441,
      "arg_perigee_deg": 81.6093,
      "mean_anomaly_deg": 278.5071,
      "mean_motion_rev_day": 15.30174482
    },
    {
      "epoch": "2026-04-04T13:21:24.006240Z",
      "apogee_km": 476.0411689409257,
      "perigee_km": 474.32783856498827,
      "latitude_deg": 2.980967190365217e-05,
      "longitude_deg": 130.37181092258538,
      "height_km": 476.20095810071587,
      "semi_major_axis_km": 6853.321503752957,
      "eccentricity": 0.000125,
      "inclination_deg": 53.1605,
      "raan_deg": 163.5966,
      "arg_perigee_deg": 97.9365,
      "mean_anomaly_deg": 262.1778,
      "mean_motion_rev_day": 15.30210237
    },
    {
      "epoch": "2026-04-05T11:18:11.150496Z",
      "apogee_km": 476.29476008679285,
      "perigee_km": 474.33152075956787,
      "latitude_deg": -2.8295711093141387e-05,
      "longitude_deg": 156.02842415619267,
      "height_km": 476.74725622992946,
      "semi_major_axis_km": 6853.4501404231805,
      "eccentricity": 0.00014323,
      "inclination_deg": 53.16,
      "raan_deg": 159.351,
      "arg_perigee_deg": 123.093,
      "mean_anomaly_deg": 237.0208,
      "mean_motion_rev_day": 15.30167155
    },
    {
      "epoch": "2026-04-05T20:42:30.328992Z",
      "apogee_km": 476.3210238815873,
      "perigee_km": 474.264994878773,
      "latitude_deg": 7.718005072219439e-05,
      "longitude_deg": 12.74082857001289,
      "height_km": 476.512459582144,
      "semi_major_axis_km": 6853.430009380179,
      "eccentricity": 0.00015,
      "inclination_deg": 53.1594,
      "raan_deg": 157.5295,
      "arg_perigee_deg": 108.235,
      "mean_anomaly_deg": 251.8815,
      "mean_motion_rev_day": 15.30173897
    },
    {
      "epoch": "2026-04-06T04:32:45.220992Z",
      "apogee_km": 476.00830625382514,
      "perigee_km": 474.383243986189,
      "latitude_deg": -2.7270649924813554e-05,
      "longitude_deg": -106.66057342340102,
      "height_km": 476.14252606663786,
      "semi_major_axis_km": 6853.332775120007,
      "eccentricity": 0.00011856,
      "inclination_deg": 53.159,
      "raan_deg": 156.0121,
      "arg_perigee_deg": 93.4333,
      "mean_anomaly_deg": 266.6803,
      "mean_motion_rev_day": 15.30206462
    },
    {
      "epoch": "2026-04-07T13:27:52.487424Z",
      "apogee_km": 476.03162736827653,
      "perigee_km": 474.45260881946706,
      "latitude_deg": 2.3024970824969665e-05,
      "longitude_deg": 111.83746123376845,
      "height_km": 476.12942249715934,
      "semi_major_axis_km": 6853.3791180938715,
      "eccentricity": 0.0001152,
      "inclination_deg": 53.1603,
      "raan_deg": 149.6423,
      "arg_perigee_deg": 89.2048,
      "mean_anomaly_deg": 270.9085,
      "mean_motion_rev_day": 15.30190941
    },
    {
      "epoch": "2026-04-08T06:42:27.478944Z",
      "apogee_km": 476.08857228916986,
      "perigee_km": 474.34288628196646,
      "latitude_deg": 3.555779992257243e-05,
      "longitude_deg": -150.85287661159563,
      "height_km": 476.1502932767822,
      "semi_major_axis_km": 6853.352729285568,
      "eccentricity": 0.00012736,
      "inclination_deg": 53.1609,
      "raan_deg": 146.3059,
      "arg_perigee_deg": 92.3902,
      "mean_anomaly_deg": 267.7245,
      "mean_motion_rev_day": 15.30199779
    },
    {
      "epoch": "2026-04-09T14:03:31.799808Z",
      "apogee_km": 476.04851885981225,
      "perigee_km": 474.4571617388947,
      "latitude_deg": 4.161672433371519e-05,
      "longitude_deg": 91.521772331106,
      "height_km": 476.0056760878571,
      "semi_major_axis_km": 6853.389840299353,
      "eccentricity": 0.0001161,
      "inclination_deg": 53.1606,
      "raan_deg": 140.2361,
      "arg_perigee_deg": 79.4656,
      "mean_anomaly_deg": 280.6476,
      "mean_motion_rev_day": 15.3018735
    },
    {
      "epoch": "2026-04-11T19:21:20.100096Z",
      "apogee_km": 476.08718601920555,
      "perigee_km": 474.40673627193155,
      "latitude_deg": 4.633464006839502e-07,
      "longitude_deg": -0.43363412422395886,
      "height_km": 475.9978330309639,
      "semi_major_axis_km": 6853.383961145568,
      "eccentricity": 0.0001226,
      "inclination_deg": 53.1603,
      "raan_deg": 129.9208,
      "arg_perigee_deg": 79.9019,
      "mean_anomaly_deg": 280.212,
      "mean_motion_rev_day": 15.30189319
    },
    {
      "epoch": "2026-04-13T07:24:34.729056Z",
      "apogee_km": 475.95706004806925,
      "perigee_km": 474.82842077041914,
      "latitude_deg": 3.738588705115052e-05,
      "longitude_deg": 170.29695097706406,
      "height_km": 476.3512172569975,
      "semi_major_axis_km": 6853.5297404092435,
      "eccentricity": 8.234e-05,
      "inclination_deg": 53.1602,
      "raan_deg": 122.943,
      "arg_perigee_deg": 96.0835,
      "mean_anomaly_deg": 264.026,
      "mean_motion_rev_day": 15.30140497
    }
  ]
}